CCSDS_OMM_VERS = 2.0
CREATION_DATE  = 
ORIGINATOR     = 

OBJECT_NAME    = KUIPER-00266
OBJECT_ID      = 2026-030AB
CENTER_NAME    = EARTH
REF_FRAME      = TEME
TIME_SYSTEM    = UTC
MEAN_ELEMENT_THEORY = SGP/SGP4

EPOCH          = 2026-03-11T18:51:11.615904
MEAN_MOTION    = 15.30706366
ECCENTRICITY   = .00232642
INCLINATION    = 51.8812
RA_OF_ASC_NODE = 209.8413
ARG_OF_PERICENTER = 81.9114
MEAN_ANOMALY   = 278.4508

EPHEMERIS_TYPE = 0
CLASSIFICATION_TYPE = U
NORAD_CAT_ID   = 67789
ELEMENT_SET_NO = 999
REV_AT_EPOCH   = 540
BSTAR          = .77785293E-3
MEAN_MOTION_DOT = .23315E-3
MEAN_MOTION_DDOT = 0

CCSDS_OMM_VERS = 2.0
CREATION_DATE  = 
ORIGINATOR     = 

OBJECT_NAME    = KUIPER-00268
OBJECT_ID      = 2026-030AC
CENTER_NAME    = EARTH
REF_FRAME      = TEME
TIME_SYSTEM    = UTC
MEAN_ELEMENT_THEORY = SGP/SGP4

EPOCH          = 2026-03-12T02:22:24.700800
MEAN_MOTION    = 15.36175438
ECCENTRICITY   = .00028874
INCLINATION    = 51.8848
RA_OF_ASC_NODE = 207.4800
ARG_OF_PERICENTER = 43.0955
MEAN_ANOMALY   = 317.0257

EPHEMERIS_TYPE = 0
CLASSIFICATION_TYPE = U
NORAD_CAT_ID   = 67790
ELEMENT_SET_NO = 999
REV_AT_EPOCH   = 546
BSTAR          = .16342085E-2
MEAN_MOTION_DOT = .58569E-3
MEAN_MOTION_DDOT = 0

CCSDS_OMM_VERS = 2.0
CREATION_DATE  = 
ORIGINATOR     = 

OBJECT_NAME    = KUIPER-00270
OBJECT_ID      = 2026-030AD
CENTER_NAME    = EARTH
REF_FRAME      = TEME
TIME_SYSTEM    = UTC
MEAN_ELEMENT_THEORY = SGP/SGP4

EPOCH          = 2026-03-11T19:09:25.262784
MEAN_MOTION    = 15.34759996
ECCENTRICITY   = .0010354
INCLINATION    = 51.8796
RA_OF_ASC_NODE = 209.1964
ARG_OF_PERICENTER = 60.3934
MEAN_ANOMALY   = 299.8083

EPHEMERIS_TYPE = 0
CLASSIFICATION_TYPE = U
NORAD_CAT_ID   = 67791
ELEMENT_SET_NO = 999
REV_AT_EPOCH   = 541
BSTAR          = .12592562E-2
MEAN_MOTION_DOT = .4301E-3
MEAN_MOTION_DDOT = 0

CCSDS_OMM_VERS = 2.0
CREATION_DATE  = 
ORIGINATOR     = 

OBJECT_NAME    = KUIPER-00274
OBJECT_ID      = 2026-030AE
CENTER_NAME    = EARTH
REF_FRAME      = TEME
TIME_SYSTEM    = UTC
MEAN_ELEMENT_THEORY = SGP/SGP4

EPOCH          = 2026-03-11T18:39:11.664576
MEAN_MOTION    = 15.29936645
ECCENTRICITY   = .00180288
INCLINATION    = 51.8832
RA_OF_ASC_NODE = 209.7955
ARG_OF_PERICENTER = 77.5662
MEAN_ANOMALY   = 282.7338

EPHEMERIS_TYPE = 0
CLASSIFICATION_TYPE = U
NORAD_CAT_ID   = 67792
ELEMENT_SET_NO = 999
REV_AT_EPOCH   = 540
BSTAR          = .45972709E-3
MEAN_MOTION_DOT = .13238E-3
MEAN_MOTION_DDOT = 0

CCSDS_OMM_VERS = 2.0
CREATION_DATE  = 
ORIGINATOR     = 

OBJECT_NAME    = KUIPER-00275
OBJECT_ID      = 2026-030AF
CENTER_NAME    = EARTH
REF_FRAME      = TEME
TIME_SYSTEM    = UTC
MEAN_ELEMENT_THEORY = SGP/SGP4

EPOCH          = 2026-03-11T19:05:09.833280
MEAN_MOTION    = 15.34855682
ECCENTRICITY   = .00093749
INCLINATION    = 51.8835
RA_OF_ASC_NODE = 209.1868
ARG_OF_PERICENTER = 59.9130
MEAN_ANOMALY   = 300.2785

EPHEMERIS_TYPE = 0
CLASSIFICATION_TYPE = U
NORAD_CAT_ID   = 67793
ELEMENT_SET_NO = 999
REV_AT_EPOCH   = 541
BSTAR          = .73958282E-3
MEAN_MOTION_DOT = .25111E-3
MEAN_MOTION_DDOT = 0

CCSDS_OMM_VERS = 2.0
CREATION_DATE  = 
ORIGINATOR     = 

OBJECT_NAME    = KUIPER-00276
OBJECT_ID      = 2026-030AG
CENTER_NAME    = EARTH
REF_FRAME      = TEME
TIME_SYSTEM    = UTC
MEAN_ELEMENT_THEORY = SGP/SGP4

EPOCH          = 2026-03-12T02:33:52.540704
MEAN_MOTION    = 15.30127064
ECCENTRICITY   = .00187525
INCLINATION    = 51.8836
RA_OF_ASC_NODE = 208.2552
ARG_OF_PERICENTER = 73.5881
MEAN_ANOMALY   = 286.7163

EPHEMERIS_TYPE = 0
CLASSIFICATION_TYPE = U
NORAD_CAT_ID   = 67794
ELEMENT_SET_NO = 999
REV_AT_EPOCH   = 545
BSTAR          = .94591312E-3
MEAN_MOTION_DOT = .2786E-3
MEAN_MOTION_DDOT = 0

CCSDS_OMM_VERS = 2.0
CREATION_DATE  = 
ORIGINATOR     = 

OBJECT_NAME    = KUIPER-00279
OBJECT_ID      = 2026-030AH
CENTER_NAME    = EARTH
REF_FRAME      = TEME
TIME_SYSTEM    = UTC
MEAN_ELEMENT_THEORY = SGP/SGP4

EPOCH          = 2026-03-12T02:39:58.076640
MEAN_MOTION    = 15.35545276
ECCENTRICITY   = .00062664
INCLINATION    = 51.8791
RA_OF_ASC_NODE = 207.5427
ARG_OF_PERICENTER = 56.9919
MEAN_ANOMALY   = 303.1669

EPHEMERIS_TYPE = 0
CLASSIFICATION_TYPE = U
NORAD_CAT_ID   = 67795
ELEMENT_SET_NO = 999
REV_AT_EPOCH   = 546
BSTAR          = .10823234E-2
MEAN_MOTION_DOT = .37792E-3
MEAN_MOTION_DDOT = 0

CCSDS_OMM_VERS = 2.0
CREATION_DATE  = 
ORIGINATOR     = 

OBJECT_NAME    = CREW DRAGON 12
OBJECT_ID      = 2026-031A
CENTER_NAME    = EARTH
REF_FRAME      = TEME
TIME_SYSTEM    = UTC
MEAN_ELEMENT_THEORY = SGP/SGP4

EPOCH          = 2026-03-12T03:49:12.417600
MEAN_MOTION    = 15.48595269
ECCENTRICITY   = .00079841
INCLINATION    = 51.6325
RA_OF_ASC_NODE = 60.1463
ARG_OF_PERICENTER = 183.4136
MEAN_ANOMALY   = 176.6799

EPHEMERIS_TYPE = 0
CLASSIFICATION_TYPE = U
NORAD_CAT_ID   = 67796
ELEMENT_SET_NO = 999
REV_AT_EPOCH   = 55661
BSTAR          = .17667487E-3
MEAN_MOTION_DOT = .9166E-4
MEAN_MOTION_DDOT = 0

CCSDS_OMM_VERS = 2.0
CREATION_DATE  = 
ORIGINATOR     = 

OBJECT_NAME    = STARLINK-36800
OBJECT_ID      = 2026-032A
CENTER_NAME    = EARTH
REF_FRAME      = TEME
TIME_SYSTEM    = UTC
MEAN_ELEMENT_THEORY = SGP/SGP4

EPOCH          = 2026-03-12T05:37:52.805280
MEAN_MOTION    = 15.75197226
ECCENTRICITY   = .00014701
INCLINATION    = 97.2841
RA_OF_ASC_NODE = 257.8416
ARG_OF_PERICENTER = 78.0732
MEAN_ANOMALY   = 282.0698

EPHEMERIS_TYPE = 0
CLASSIFICATION_TYPE = U
NORAD_CAT_ID   = 67797
ELEMENT_SET_NO = 999
REV_AT_EPOCH   = 518
BSTAR          = .73846737E-3
MEAN_MOTION_DOT = .111501E-2
MEAN_MOTION_DDOT = 0

CCSDS_OMM_VERS = 2.0
CREATION_DATE  = 
ORIGINATOR     = 

OBJECT_NAME    = STARLINK-36798
OBJECT_ID      = 2026-032B
CENTER_NAME    = EARTH
REF_FRAME      = TEME
TIME_SYSTEM    = UTC
MEAN_ELEMENT_THEORY = SGP/SGP4

EPOCH          = 2026-03-12T06:45:58.810752
MEAN_MOTION    = 15.75208867
ECCENTRICITY   = .0001175
INCLINATION    = 97.2844
RA_OF_ASC_NODE = 257.9312
ARG_OF_PERICENTER = 106.7092
MEAN_ANOMALY   = 253.4302

EPHEMERIS_TYPE = 0
CLASSIFICATION_TYPE = U
NORAD_CAT_ID   = 67798
ELEMENT_SET_NO = 999
REV_AT_EPOCH   = 519
BSTAR          = .1047226E-2
MEAN_MOTION_DOT = .159144E-2
MEAN_MOTION_DDOT = 0

CCSDS_OMM_VERS = 2.0
CREATION_DATE  = 
ORIGINATOR     = 

OBJECT_NAME    = STARLINK-36804
OBJECT_ID      = 2026-032C
CENTER_NAME    = EARTH
REF_FRAME      = TEME
TIME_SYSTEM    = UTC
MEAN_ELEMENT_THEORY = SGP/SGP4

EPOCH          = 2026-03-12T05:35:19.976640
MEAN_MOTION    = 15.75270682
ECCENTRICITY   = .00014415
INCLINATION    = 97.2840
RA_OF_ASC_NODE = 257.8441
ARG_OF_PERICENTER = 75.9481
MEAN_ANOMALY   = 284.1945

EPHEMERIS_TYPE = 0
CLASSIFICATION_TYPE = U
NORAD_CAT_ID   = 67799
ELEMENT_SET_NO = 999
REV_AT_EPOCH   = 518
BSTAR          = .16619661E-2
MEAN_MOTION_DOT = .256239E-2
MEAN_MOTION_DDOT = 0

CCSDS_OMM_VERS = 2.0
CREATION_DATE  = 
ORIGINATOR     = 

OBJECT_NAME    = STARLINK-36354
OBJECT_ID      = 2026-032D
CENTER_NAME    = EARTH
REF_FRAME      = TEME
TIME_SYSTEM    = UTC
MEAN_ELEMENT_THEORY = SGP/SGP4

EPOCH          = 2026-03-12T06:51:03.666240
MEAN_MOTION    = 15.75251018
ECCENTRICITY   = .0001388
INCLINATION    = 97.2844
RA_OF_ASC_NODE = 257.9274
ARG_OF_PERICENTER = 89.2930
MEAN_ANOMALY   = 270.8494

EPHEMERIS_TYPE = 0
CLASSIFICATION_TYPE = U
NORAD_CAT_ID   = 67800
ELEMENT_SET_NO = 999
REV_AT_EPOCH   = 519
BSTAR          = .14020256E-2
MEAN_MOTION_DOT = .214905E-2
MEAN_MOTION_DDOT = 0

