KUIPER-00266            
1 67789U 26030AB  26070.78555111  .00023315  00000+0  77785-3 0  9996
2 67789  51.8812 209.8413 0023264  81.9114 278.4508 15.30706366  5402
KUIPER-00268            
1 67790U 26030AC  26071.09889700  .00058569  00000+0  16342-2 0  9997
2 67790  51.8848 207.4800 0002887  43.0955 317.0257 15.36175438  5460
KUIPER-00270            
1 67791U 26030AD  26070.79820906  .00043010  00000+0  12593-2 0  9996
2 67791  51.8796 209.1964 0010354  60.3934 299.8083 15.34759996  5414
KUIPER-00274            
1 67792U 26030AE  26070.77721834  .00013238  00000+0  45973-3 0  9993
2 67792  51.8832 209.7955 0018028  77.5662 282.7338 15.29936645  5401
KUIPER-00275            
1 67793U 26030AF  26070.79525270  .00025111  00000+0  73958-3 0  9999
2 67793  51.8835 209.1868 0009374  59.9130 300.2785 15.34855682  5410
KUIPER-00276            
1 67794U 26030AG  26071.10685811  .00027860  00000+0  94591-3 0  9993
2 67794  51.8836 208.2552 0018752  73.5881 286.7163 15.30127064  5451
KUIPER-00279            
1 67795U 26030AH  26071.11108885  .00037792  00000+0  10823-2 0  9996
2 67795  51.8791 207.5427 0006266  56.9919 303.1669 15.35545276  5469
CREW DRAGON 12          
1 67796U 26031A   26071.15917150  .00009166  00000+0  17667-3 0  9993
2 67796  51.6325  60.1463 0007984 183.4136 176.6799 15.48595269556615
STARLINK-36800          
1 67797U 26032A   26071.23463895  .00111501  00000+0  73847-3 0  9995
2 67797  97.2841 257.8416 0001470  78.0732 282.0698 15.75197226  5185
STARLINK-36798          
1 67798U 26032B   26071.28193068  .00159144  00000+0  10472-2 0  9992
2 67798  97.2844 257.9312 0001175 106.7092 253.4302 15.75208867  5194
STARLINK-36804          
1 67799U 26032C   26071.23287010  .00256239  00000+0  16620-2 0  9993
2 67799  97.2840 257.8441 0001441  75.9481 284.1945 15.75270682  5185
STARLINK-36354          
1 67800U 26032D   26071.28545910  .00214905  00000+0  14020-2 0  9993
2 67800  97.2844 257.9274 0001388  89.2930 270.8494 15.75251018  5198
